[{"OBJECT_NAME":"STARLINK-4129","OBJECT_ID":"2022-086K","EPOCH":"2026-03-09T15:15:53.294400","MEAN_MOTION":15.08834962,"ECCENTRICITY":0.0001302,"INCLINATION":53.2174,"RA_OF_ASC_NODE":194.3595,"ARG_OF_PERICENTER":91.1591,"MEAN_ANOMALY":268.955,"EPHEMERIS_TYPE":0,"CLASSIFICATION_TYPE":"U","NORAD_CAT_ID":53251,"ELEMENT_SET_NO":999,"REV_AT_EPOCH":20105,"BSTAR":-8.7742e-6,"MEAN_MOTION_DOT":-4.27e-6,"MEAN_MOTION_DDOT":0},{"OBJECT_NAME":"TSX-5","OBJECT_ID":"2000-030A","EPOCH":"2026-03-09T21:12:25.441056","MEAN_MOTION":14.57965705,"ECCENTRICITY":0.04447223,"INCLINATION":68.9141,"RA_OF_ASC_NODE":228.535,"ARG_OF_PERICENTER":180.8093,"MEAN_ANOMALY":179.2379,"EPHEMERIS_TYPE":0,"CLASSIFICATION_TYPE":"U","NORAD_CAT_ID":26374,"ELEMENT_SET_NO":999,"REV_AT_EPOCH":30806,"BSTAR":0.0016357838,"MEAN_MOTION_DOT":0.00031184,"MEAN_MOTION_DDOT":0}]
